[{"OBJECT_NAME":"STARLINK-35266","OBJECT_ID":"2025-218P","EPOCH":"2026-03-09T12:48:57.104064","MEAN_MOTION":15.05652271,"ECCENTRICITY":0.00025424,"INCLINATION":97.6023,"RA_OF_ASC_NODE":292.76,"ARG_OF_PERICENTER":85.6067,"MEAN_ANOMALY":274.545,"EPHEMERIS_TYPE":0,"CLASSIFICATION_TYPE":"U","NORAD_CAT_ID":65804,"ELEMENT_SET_NO":999,"REV_AT_EPOCH":2494,"BSTAR":0.00029068509,"MEAN_MOTION_DOT":4.136e-5,"MEAN_MOTION_DDOT":0},{"OBJECT_NAME":"ARIANE 5 DEB [SYLDA]","OBJECT_ID":"2008-038D","EPOCH":"2026-03-09T20:36:47.746944","MEAN_MOTION":4.52600354,"ECCENTRICITY":0.55333678,"INCLINATION":2.4396,"RA_OF_ASC_NODE":248.0227,"ARG_OF_PERICENTER":234.5334,"MEAN_ANOMALY":60.3365,"EPHEMERIS_TYPE":0,"CLASSIFICATION_TYPE":"U","NORAD_CAT_ID":33277,"ELEMENT_SET_NO":999,"REV_AT_EPOCH":23945,"BSTAR":0.0015489975,"MEAN_MOTION_DOT":6.11e-6,"MEAN_MOTION_DDOT":0}]
